API VERSION: 1.2
API SOURCE: NASA/JPL Horizons API



*******************************************************************************
Ephemeris / API_USER Sat Jul 11 19:36:54 2026 Pasadena, USA      / Horizons    
*******************************************************************************
Target body name: 2060 Chiron (1977 UB)           {source: JPL#171}
Center body name: Earth (399)                     {source: DE441}
Center-site name: GEOCENTRIC
*******************************************************************************
Start time      : A.D. 2000-Jan-01 00:00:00.0000 UT      
Stop  time      : A.D. 2005-Jan-01 00:00:00.0000 UT      
Step-size       : 2880 minutes
*******************************************************************************
Target pole/equ : undefined
Target radii    : 83. km                                                       
Center geodetic : 0.0, 0.0, -6378.137             {E-lon(deg),Lat(deg),Alt(km)}
Center cylindric: 0.0, 0.0, 0.0                   {E-lon(deg),Dxy(km),Dz(km)}
Center pole/equ : ITRF93                          {East-longitude positive}
Center radii    : 6378.137, 6378.137, 6356.752 km {Equator_a, b, pole_c}       
Target primary  : Sun
Vis. interferer : MOON (R_eq= 1737.400) km        {source: DE441}
Rel. light bend : Sun                             {source: DE441}
Rel. lght bnd GM: 1.3271E+11 km^3/s^2                                          
Small-body perts: Yes                             {source: SB441-N16}
Atmos refraction: NO (AIRLESS)
RA format       : DEG
Time format     : CAL 
Calendar mode   : Mixed Julian/Gregorian
EOP file        : eop.260710.p261006                                           
EOP coverage    : DATA-BASED 1962-JAN-20 TO 2026-JUL-10. PREDICTS-> 2026-OCT-05
Units conversion: 1 au= 149597870.700 km, c= 299792.458 km/s, 1 day= 86400.0 s 
Table cut-offs 1: Elevation (-90.0deg=NO ),Airmass (>38.000=NO), Daylight (NO )
Table cut-offs 2: Solar elongation (  0.0,180.0=NO ),Local Hour Angle( 0.0=NO )
Table cut-offs 3: RA/DEC angular rate (     0.0=NO )                           
*******************************************************************************
Initial IAU76/J2000 heliocentric ecliptic osculating elements (au, days, deg.):
  EPOCH=  2457916.5 ! 2017-Jun-12.00 (TDB)         Residual RMS= .19933        
   EC= .3824171374703196   QR= 8.427522999110739   TP= 2450143.7110841358      
   OM= 209.2011323125998   W=  339.6529896907077   IN= 6.94959060447848        
  Equivalent ICRF heliocentric cartesian coordinates (au, au/d):
   X= 1.843374627977423E+01  Y=-1.877818593473934E+00  Z= 5.548833989583914E-01
  VX= 7.316266023833624E-04 VY= 2.960187278972600E-03 VZ= 9.710586201315230E-04
Asteroid physical parameters (km, seconds, rotational period in hours):        
   GM= n.a.                RAD= 83.                ROTPER= 5.918               
   H= 5.54                 G= .150                 B-V= .704                   
                           ALBEDO= .150            STYP= Cb                    
*******************************************************************************
 Date__(UT)__HR:MN        ObsEcLon    ObsEcLat
**********************************************
$$SOE
 2000-Jan-01 00:00     251.5603761   4.0686422
 2000-Jan-03 00:00     251.7883406   4.0810380
 2000-Jan-05 00:00     252.0136248   4.0938070
 2000-Jan-07 00:00     252.2360445   4.1069486
 2000-Jan-09 00:00     252.4554085   4.1204621
 2000-Jan-11 00:00     252.6715363   4.1343461
 2000-Jan-13 00:00     252.8842749   4.1485988
 2000-Jan-15 00:00     253.0935050   4.1632179
 2000-Jan-17 00:00     253.2991295   4.1782001
 2000-Jan-19 00:00     253.5010352   4.1935414
 2000-Jan-21 00:00     253.6990548   4.2092372
 2000-Jan-23 00:00     253.8929961   4.2252826
 2000-Jan-25 00:00     254.0827141   4.2416729
 2000-Jan-27 00:00     254.2681087   4.2584034
 2000-Jan-29 00:00     254.4490730   4.2754698
 2000-Jan-31 00:00     254.6254725   4.2928673
 2000-Feb-02 00:00     254.7971509   4.3105911
 2000-Feb-04 00:00     254.9639392   4.3286355
 2000-Feb-06 00:00     255.1256687   4.3469946
 2000-Feb-08 00:00     255.2821891   4.3656616
 2000-Feb-10 00:00     255.4333855   4.3846290
 2000-Feb-12 00:00     255.5791778   4.4038882
 2000-Feb-14 00:00     255.7194948   4.4234297
 2000-Feb-16 00:00     255.8542372   4.4432429
 2000-Feb-18 00:00     255.9832641   4.4633166
 2000-Feb-20 00:00     256.1064342   4.4836393
 2000-Feb-22 00:00     256.2236577   4.5041996
 2000-Feb-24 00:00     256.3348812   4.5249859
 2000-Feb-26 00:00     256.4400384   4.5459867
 2000-Feb-28 00:00     256.5390346   4.5671900
 2000-Mar-01 00:00     256.6317581   4.5885830
 2000-Mar-03 00:00     256.7180934   4.6101523
 2000-Mar-05 00:00     256.7979341   4.6318836
 2000-Mar-07 00:00     256.8712015   4.6537619
 2000-Mar-09 00:00     256.9378599   4.6757706
 2000-Mar-11 00:00     256.9979084   4.6978923
 2000-Mar-13 00:00     257.0513411   4.7201083
 2000-Mar-15 00:00     257.0981168   4.7423990
 2000-Mar-17 00:00     257.1381729   4.7647444
 2000-Mar-19 00:00     257.1714714   4.7871242
 2000-Mar-21 00:00     257.1980259   4.8095183
 2000-Mar-23 00:00     257.2178753   4.8319065
 2000-Mar-25 00:00     257.2310416   4.8542687
 2000-Mar-27 00:00     257.2375221   4.8765839
 2000-Mar-29 00:00     257.2373047   4.8988309
 2000-Mar-31 00:00     257.2303828   4.9209876
 2000-Apr-02 00:00     257.2167695   4.9430312
 2000-Apr-04 00:00     257.1965134   4.9649381
 2000-Apr-06 00:00     257.1697132   4.9866837
 2000-Apr-08 00:00     257.1364981   5.0082425
 2000-Apr-10 00:00     257.0969782   5.0295882
 2000-Apr-12 00:00     257.0512264   5.0506945
 2000-Apr-14 00:00     256.9993172   5.0715353
 2000-Apr-16 00:00     256.9413699   5.0920850
 2000-Apr-18 00:00     256.8775483   5.1123188
 2000-Apr-20 00:00     256.8080271   5.1322125
 2000-Apr-22 00:00     256.7329615   5.1517424
 2000-Apr-24 00:00     256.6524862   5.1708846
 2000-Apr-26 00:00     256.5667319   5.1896157
 2000-Apr-28 00:00     256.4758423   5.2079121
 2000-Apr-30 00:00     256.3799868   5.2257505
 2000-May-02 00:00     256.2793745   5.2431074
 2000-May-04 00:00     256.1742626   5.2599593
 2000-May-06 00:00     256.0649285   5.2762830
 2000-May-08 00:00     255.9516130   5.2920556
 2000-May-10 00:00     255.8345182   5.3072552
 2000-May-12 00:00     255.7138676   5.3218618
 2000-May-14 00:00     255.5899360   5.3358574
 2000-May-16 00:00     255.4630253   5.3492254
 2000-May-18 00:00     255.3334294   5.3619509
 2000-May-20 00:00     255.2014163   5.3740205
 2000-May-22 00:00     255.0672328   5.3854217
 2000-May-24 00:00     254.9311215   5.3961431
 2000-May-26 00:00     254.7933378   5.4061746
 2000-May-28 00:00     254.6541612   5.4155068
 2000-May-30 00:00     254.5139060   5.4241315
 2000-Jun-01 00:00     254.3729209   5.4320412
 2000-Jun-03 00:00     254.2315552   5.4392296
 2000-Jun-05 00:00     254.0901020   5.4456915
 2000-Jun-07 00:00     253.9488129   5.4514242
 2000-Jun-09 00:00     253.8079722   5.4564271
 2000-Jun-11 00:00     253.6679087   5.4607024
 2000-Jun-13 00:00     253.5289529   5.4642541
 2000-Jun-15 00:00     253.3914061   5.4670882
 2000-Jun-17 00:00     253.2555354   5.4692119
 2000-Jun-19 00:00     253.1215828   5.4706337
 2000-Jun-21 00:00     252.9897826   5.4713634
 2000-Jun-23 00:00     252.8603776   5.4714116
 2000-Jun-25 00:00     252.7336299   5.4707898
 2000-Jun-27 00:00     252.6098261   5.4695103
 2000-Jun-29 00:00     252.4892686   5.4675862
 2000-Jul-01 00:00     252.3722379   5.4650311
 2000-Jul-03 00:00     252.2589459   5.4618599
 2000-Jul-05 00:00     252.1495671   5.4580889
 2000-Jul-07 00:00     252.0443156   5.4537366
 2000-Jul-09 00:00     251.9434388   5.4488230
 2000-Jul-11 00:00     251.8471636   5.4433692
 2000-Jul-13 00:00     251.7556739   5.4373973
 2000-Jul-15 00:00     251.6691169   5.4309296
 2000-Jul-17 00:00     251.5876165   5.4239888
 2000-Jul-19 00:00     251.5112897   5.4165977
 2000-Jul-21 00:00     251.4402629   5.4087791
 2000-Jul-23 00:00     251.3746813   5.4005557
 2000-Jul-25 00:00     251.3147076   5.3919501
 2000-Jul-27 00:00     251.2605050   5.3829845
 2000-Jul-29 00:00     251.2121990   5.3736809
 2000-Jul-31 00:00     251.1698495   5.3640618
 2000-Aug-02 00:00     251.1334954   5.3541499
 2000-Aug-04 00:00     251.1032218   5.3439691
 2000-Aug-06 00:00     251.0791384   5.3335437
 2000-Aug-08 00:00     251.0613213   5.3228981
 2000-Aug-10 00:00     251.0498008   5.3120567
 2000-Aug-12 00:00     251.0445766   5.3010431
 2000-Aug-14 00:00     251.0456338   5.2898804
 2000-Aug-16 00:00     251.0529581   5.2785911
 2000-Aug-18 00:00     251.0665508   5.2671970
 2000-Aug-20 00:00     251.0864366   5.2557189
 2000-Aug-22 00:00     251.1126540   5.2441769
 2000-Aug-24 00:00     251.1452291   5.2325904
 2000-Aug-26 00:00     251.1841429   5.2209779
 2000-Aug-28 00:00     251.2293268   5.2093582
 2000-Aug-30 00:00     251.2807149   5.1977496
 2000-Sep-01 00:00     251.3382908   5.1861712
 2000-Sep-03 00:00     251.4020530   5.1746422
 2000-Sep-05 00:00     251.4719602   5.1631811
 2000-Sep-07 00:00     251.5479290   5.1518062
 2000-Sep-09 00:00     251.6298547   5.1405348
 2000-Sep-11 00:00     251.7176289   5.1293834
 2000-Sep-13 00:00     251.8111527   5.1183677
 2000-Sep-15 00:00     251.9103500   5.1075025
 2000-Sep-17 00:00     252.0151719   5.0968017
 2000-Sep-19 00:00     252.1255782   5.0862782
 2000-Sep-21 00:00     252.2415030   5.0759442
 2000-Sep-23 00:00     252.3628333   5.0658114
 2000-Sep-25 00:00     252.4894302   5.0558914
 2000-Sep-27 00:00     252.6211792   5.0461961
 2000-Sep-29 00:00     252.7580113   5.0367376
 2000-Oct-01 00:00     252.8998594   5.0275279
 2000-Oct-03 00:00     253.0466142   5.0185791
 2000-Oct-05 00:00     253.1981291   5.0099023
 2000-Oct-07 00:00     253.3542458   5.0015083
 2000-Oct-09 00:00     253.5148113   4.9934069
 2000-Oct-11 00:00     253.6796889   4.9856073
 2000-Oct-13 00:00     253.8487693   4.9781179
